STARLINK-32148          
1 60263U 24131J   26068.26774293  .00000459  00000+0  27625-4 0  9993
2 60263  53.1611  54.4138 0001240  91.6952 268.4191 15.30189069 91700
NUSAT-49 (KLARA DAN VO*)
1 60500U 24149AJ  26068.79810190  .00012912  00000+0  43568-3 0  9991
2 60500  97.3807 150.7380 0001132 286.7761  73.3356 15.30828857 86935
